CENTAURI-6              
1 59451U 24066K   26068.32290132  .00007311  00000+0  52686-3 0  9997
2 59451  45.6063  55.7055 0002534 285.4438  74.6166 15.04786474105074
STARLINK-34613          
1 65294U 25184X   26068.72562604  .00010386  00000+0  72225-3 0  9998
2 65294  97.6018 122.6564 0001692  64.4167 295.7235 15.05686471 31304
