[{"OBJECT_NAME":"CENTAURI-6","OBJECT_ID":"2024-066K","EPOCH":"2026-03-09T07:44:58.674048","MEAN_MOTION":15.04786474,"ECCENTRICITY":0.00025343,"INCLINATION":45.6063,"RA_OF_ASC_NODE":55.7055,"ARG_OF_PERICENTER":285.4438,"MEAN_ANOMALY":74.6166,"EPHEMERIS_TYPE":0,"CLASSIFICATION_TYPE":"U","NORAD_CAT_ID":59451,"ELEMENT_SET_NO":999,"REV_AT_EPOCH":10507,"BSTAR":0.00052686271,"MEAN_MOTION_DOT":7.311e-5,"MEAN_MOTION_DDOT":0},{"OBJECT_NAME":"STARLINK-34613","OBJECT_ID":"2025-184X","EPOCH":"2026-03-09T17:24:54.089856","MEAN_MOTION":15.05686471,"ECCENTRICITY":0.00016923,"INCLINATION":97.6018,"RA_OF_ASC_NODE":122.6564,"ARG_OF_PERICENTER":64.4167,"MEAN_ANOMALY":295.7235,"EPHEMERIS_TYPE":0,"CLASSIFICATION_TYPE":"U","NORAD_CAT_ID":65294,"ELEMENT_SET_NO":999,"REV_AT_EPOCH":3130,"BSTAR":0.00072224796,"MEAN_MOTION_DOT":0.00010386,"MEAN_MOTION_DDOT":0}]
